{
  "type": "FeatureCollection",
  "features": [
    {
      "type": "Feature",
      "properties": {
        "norad_id": 39617,
        "name": "ASTRA 5B (EGNOS/PRN 123)",
        "group": "gnss",
        "lat": 0.05736737839125609,
        "lon": 61.54415749675225,
        "alt_km": 35805.71895715645,
        "timestamp": "2025-12-04T21:36:16.115965+00:00",
        "meta_object_name": "ASTRA 5B (EGNOS/PRN 123)",
        "meta_object_id": "2014-011B",
        "meta_epoch": "2025-12-04T13:50:18.965760",
        "meta_mean_motion": 1.00267772,
        "meta_eccentricity": 0.00045497,
        "meta_inclination": 0.0487,
        "meta_ra_of_asc_node": 15.352,
        "meta_arg_of_pericenter": 242.0014,
        "meta_mean_anomaly": 47.3935,
        "meta_ephemeris_type": 0,
        "meta_classification_type": "U",
        "meta_norad_cat_id": 39617,
        "meta_element_set_no": 999,
        "meta_rev_at_epoch": 4271,
        "meta_bstar": 0,
        "meta_mean_motion_dot": 1.51e-06,
        "meta_mean_motion_ddot": 0,
        "tle_line1": "1 39617U 14011B   25338.57660840  .00000151  00000+0  00000+0 0  9995",
        "tle_line2": "2 39617   0.0487  15.3520 0004549 242.0014  47.3935  1.00267772 42715"
      },
      "geometry": {
        "type": "Point",
        "coordinates": [
          61.54415749675225,
          0.05736737839125609
        ]
      }
    },
    {
      "type": "Feature",
      "properties": {
        "norad_id": 39620,
        "name": "COSMOS 2492 (754)",
        "group": "gnss",
        "lat": -47.00896117937517,
        "lon": 169.9462550268183,
        "alt_km": 19127.422752720006,
        "timestamp": "2025-12-04T21:36:16.115979+00:00",
        "meta_object_name": "COSMOS 2492 (754)",
        "meta_object_id": "2014-012A",
        "meta_epoch": "2025-12-02T17:14:30.403680",
        "meta_mean_motion": 2.13103072,
        "meta_eccentricity": 0.00141646,
        "meta_inclination": 65.4134,
        "meta_ra_of_asc_node": 320.6107,
        "meta_arg_of_pericenter": 311.0276,
        "meta_mean_anomaly": 48.8557,
        "meta_ephemeris_type": 0,
        "meta_classification_type": "U",
        "meta_norad_cat_id": 39620,
        "meta_element_set_no": 999,
        "meta_rev_at_epoch": 9105,
        "meta_bstar": 0,
        "meta_mean_motion_dot": -3.6e-07,
        "meta_mean_motion_ddot": 0,
        "tle_line1": "1 39620U 14012A   25336.71840745 -.00000036  00000+0  00000+0 0  9991",
        "tle_line2": "2 39620  65.4134 320.6107 0014164 311.0276  48.8557  2.13103072 91051"
      },
      "geometry": {
        "type": "Point",
        "coordinates": [
          169.9462550268183,
          -47.00896117937517
        ]
      }
    },
    {
      "type": "Feature",
      "properties": {
        "norad_id": 39635,
        "name": "IRNSS-1B",
        "group": "gnss",
        "lat": -13.693502562790751,
        "lon": 89.98673968274558,
        "alt_km": 35719.542275556545,
        "timestamp": "2025-12-04T21:36:16.115991+00:00",
        "meta_object_name": "IRNSS-1B",
        "meta_object_id": "2014-017A",
        "meta_epoch": "2025-12-03T19:41:17.178144",
        "meta_mean_motion": 1.0027569,
        "meta_eccentricity": 0.00176274,
        "meta_inclination": 28.8399,
        "meta_ra_of_asc_node": 243.7446,
        "meta_arg_of_pericenter": 183.6842,
        "meta_mean_anomaly": 355.8349,
        "meta_ephemeris_type": 0,
        "meta_classification_type": "U",
        "meta_norad_cat_id": 39635,
        "meta_element_set_no": 999,
        "meta_rev_at_epoch": 4283,
        "meta_bstar": 0,
        "meta_mean_motion_dot": 1.25e-06,
        "meta_mean_motion_ddot": 0,
        "tle_line1": "1 39635U 14017A   25337.82033771  .00000125  00000+0  00000+0 0  9996",
        "tle_line2": "2 39635  28.8399 243.7446 0017627 183.6842 355.8349  1.00275690 42836"
      },
      "geometry": {
        "type": "Point",
        "coordinates": [
          89.98673968274558,
          -13.693502562790751
        ]
      }
    },
    {
      "type": "Feature",
      "properties": {
        "norad_id": 39727,
        "name": "LUCH 5V (SDCM/PRN 141)",
        "group": "gnss",
        "lat": 4.080806669773894,
        "lon": 132.6843179623198,
        "alt_km": 35799.91561883846,
        "timestamp": "2025-12-04T21:36:16.116003+00:00",
        "meta_object_name": "LUCH 5V (SDCM/PRN 141)",
        "meta_object_id": "2014-023A",
        "meta_epoch": "2025-12-03T19:58:11.808768",
        "meta_mean_motion": 1.00271692,
        "meta_eccentricity": 0.00045321,
        "meta_inclination": 4.6454,
        "meta_ra_of_asc_node": 71.6144,
        "meta_arg_of_pericenter": 199.1759,
        "meta_mean_anomaly": 196.4512,
        "meta_ephemeris_type": 0,
        "meta_classification_type": "U",
        "meta_norad_cat_id": 39727,
        "meta_element_set_no": 999,
        "meta_rev_at_epoch": 4240,
        "meta_bstar": 0,
        "meta_mean_motion_dot": -2.55e-06,
        "meta_mean_motion_ddot": 0,
        "tle_line1": "1 39727U 14023A   25337.83208112 -.00000255  00000+0  00000+0 0  9994",
        "tle_line2": "2 39727   4.6454  71.6144 0004532 199.1759 196.4512  1.00271692 42407"
      },
      "geometry": {
        "type": "Point",
        "coordinates": [
          132.6843179623198,
          4.080806669773894
        ]
      }
    },
    {
      "type": "Feature",
      "properties": {
        "norad_id": 39741,
        "name": "GPS BIIF-6  (PRN 06)",
        "group": "gnss",
        "lat": -56.012105198882644,
        "lon": -99.22999760840948,
        "alt_km": 20110.81884494315,
        "timestamp": "2025-12-04T21:36:16.116014+00:00",
        "meta_object_name": "GPS BIIF-6  (PRN 06)",
        "meta_object_id": "2014-026A",
        "meta_epoch": "2025-12-04T12:23:41.364672",
        "meta_mean_motion": 2.0056177,
        "meta_eccentricity": 0.00389504,
        "meta_inclination": 56.5867,
        "meta_ra_of_asc_node": 339.0964,
        "meta_arg_of_pericenter": 318.2284,
        "meta_mean_anomaly": 41.4951,
        "meta_ephemeris_type": 0,
        "meta_classification_type": "U",
        "meta_norad_cat_id": 39741,
        "meta_element_set_no": 999,
        "meta_rev_at_epoch": 8463,
        "meta_bstar": 0,
        "meta_mean_motion_dot": -7e-07,
        "meta_mean_motion_ddot": 0,
        "tle_line1": "1 39741U 14026A   25338.51645098 -.00000070  00000+0  00000+0 0  9992",
        "tle_line2": "2 39741  56.5867 339.0964 0038950 318.2284  41.4951  2.00561770 84633"
      },
      "geometry": {
        "type": "Point",
        "coordinates": [
          -99.22999760840948,
          -56.012105198882644
        ]
      }
    },
    {
      "type": "Feature",
      "properties": {
        "norad_id": 40001,
        "name": "COSMOS 2500 (755)",
        "group": "gnss",
        "lat": 62.93498205247943,
        "lon": 76.28157091238774,
        "alt_km": 19132.566440672086,
        "timestamp": "2025-12-04T21:36:16.116026+00:00",
        "meta_object_name": "COSMOS 2500 (755)",
        "meta_object_id": "2014-032A",
        "meta_epoch": "2025-12-04T07:09:49.504896",
        "meta_mean_motion": 2.13106037,
        "meta_eccentricity": 0.00082674,
        "meta_inclination": 65.3482,
        "meta_ra_of_asc_node": 320.3199,
        "meta_arg_of_pericenter": 219.122,
        "meta_mean_anomaly": 140.8171,
        "meta_ephemeris_type": 0,
        "meta_classification_type": "U",
        "meta_norad_cat_id": 40001,
        "meta_element_set_no": 999,
        "meta_rev_at_epoch": 8930,
        "meta_bstar": 0,
        "meta_mean_motion_dot": -4.5e-07,
        "meta_mean_motion_ddot": 0,
        "tle_line1": "1 40001U 14032A   25338.29848964 -.00000045  00000+0  00000+0 0  9994",
        "tle_line2": "2 40001  65.3482 320.3199 0008267 219.1220 140.8171  2.13106037 89307"
      },
      "geometry": {
        "type": "Point",
        "coordinates": [
          76.28157091238774,
          62.93498205247943
        ]
      }
    },
    {
      "type": "Feature",
      "properties": {
        "norad_id": 40105,
        "name": "GPS BIIF-7  (PRN 09)",
        "group": "gnss",
        "lat": -27.565135037439994,
        "lon": -62.55603983470986,
        "alt_km": 20191.713049925937,
        "timestamp": "2025-12-04T21:36:16.116039+00:00",
        "meta_object_name": "GPS BIIF-7  (PRN 09)",
        "meta_object_id": "2014-045A",
        "meta_epoch": "2025-12-02T02:40:49.418112",
        "meta_mean_motion": 2.00571797,
        "meta_eccentricity": 0.00329353,
        "meta_inclination": 55.2223,
        "meta_ra_of_asc_node": 96.323,
        "meta_arg_of_pericenter": 119.6015,
        "meta_mean_anomaly": 240.7039,
        "meta_ephemeris_type": 0,
        "meta_classification_type": "U",
        "meta_norad_cat_id": 40105,
        "meta_element_set_no": 999,
        "meta_rev_at_epoch": 8212,
        "meta_bstar": 0,
        "meta_mean_motion_dot": 7e-08,
        "meta_mean_motion_ddot": 0,
        "tle_line1": "1 40105U 14045A   25336.11168308  .00000007  00000+0  00000+0 0  9996",
        "tle_line2": "2 40105  55.2223  96.3230 0032935 119.6015 240.7039  2.00571797 82125"
      },
      "geometry": {
        "type": "Point",
        "coordinates": [
          -62.55603983470986,
          -27.565135037439994
        ]
      }
    }
  ]
}